{"type": "FeatureCollection", "features": [ {"type": "Feature", "properties": {"norad_id": 34409, "name": "COSMOS 2251 DEB", "group": "cosmos-2251-debris", "lat": 55.73969751866749, "lon": -55.24001132897308, "alt_km": 672.6883990791557, "timestamp": "2025-12-26T21:25:53.403704+00:00", "meta": {"OBJECT_NAME": "COSMOS 2251 DEB", "OBJECT_ID": "1993-036RA", "EPOCH": "2025-12-26T13:43:20.964288", "MEAN_MOTION": 14.58060964, "ECCENTRICITY": 0.00804605, "INCLINATION": 74.0637, "RA_OF_ASC_NODE": 280.5674, "ARG_OF_PERICENTER": 351.315, "MEAN_ANOMALY": 181.8118, "EPHEMERIS_TYPE": 0, "CLASSIFICATION_TYPE": "U", "NORAD_CAT_ID": 34409, "ELEMENT_SET_NO": 999, "REV_AT_EPOCH": 89394, "BSTAR": 0.00027354986, "MEAN_MOTION_DOT": 1.284e-05, "MEAN_MOTION_DDOT": 0}, "tle": {"line1": "1 34409U 93036RA  25360.57177042  .00001284  00000+0  27355-3 0  9999", "line2": "2 34409  74.0637 280.5674 0080460 351.3150 181.8118 14.58060964893941"}}, "geometry": {"type": "Point", "coordinates": [-55.24001132897308, 55.73969751866749]}}, {"type": "Feature", "properties": {"norad_id": 34410, "name": "COSMOS 2251 DEB", "group": "cosmos-2251-debris", "lat": -10.202449729091379, "lon": -131.46024953882082, "alt_km": 506.6646212045007, "timestamp": "2025-12-26T21:25:53.403714+00:00", "meta": {"OBJECT_NAME": "COSMOS 2251 DEB", "OBJECT_ID": "1993-036RB", "EPOCH": "2025-12-26T15:17:57.461568", "MEAN_MOTION": 15.20204778, "ECCENTRICITY": 0.00212474, "INCLINATION": 73.7358, "RA_OF_ASC_NODE": 232.0969, "ARG_OF_PERICENTER": 70.7601, "MEAN_ANOMALY": 321.2169, "EPHEMERIS_TYPE": 0, "CLASSIFICATION_TYPE": "U", "NORAD_CAT_ID": 34410, "ELEMENT_SET_NO": 999, "REV_AT_EPOCH": 89985, "BSTAR": 0.0022531647, "MEAN_MOTION_DOT": 0.00049424, "MEAN_MOTION_DDOT": 0}, "tle": {"line1": "1 34410U 93036RB  25360.63747062  .00049424  00000+0  22532-2 0  9992", "line2": "2 34410  73.7358 232.0969 0021247  70.7601 321.2169 15.20204778899854"}}, "geometry": {"type": "Point", "coordinates": [-131.46024953882082, -10.202449729091379]}}, {"type": "Feature", "properties": {"norad_id": 34412, "name": "COSMOS 2251 DEB", "group": "cosmos-2251-debris", "lat": 70.63349881908805, "lon": -7.016819359608043, "alt_km": 638.6246432706293, "timestamp": "2025-12-26T21:25:53.403724+00:00", "meta": {"OBJECT_NAME": "COSMOS 2251 DEB", "OBJECT_ID": "1993-036RD", "EPOCH": "2025-12-26T06:09:00.171072", "MEAN_MOTION": 14.47312096, "ECCENTRICITY": 0.0187713, "INCLINATION": 73.9486, "RA_OF_ASC_NODE": 299.1878, "ARG_OF_PERICENTER": 31.1517, "MEAN_ANOMALY": 330.0606, "EPHEMERIS_TYPE": 0, "CLASSIFICATION_TYPE": "U", "NORAD_CAT_ID": 34412, "ELEMENT_SET_NO": 999, "REV_AT_EPOCH": 87846, "BSTAR": 0.0018061614, "MEAN_MOTION_DOT": 8.23e-05, "MEAN_MOTION_DDOT": 0}, "tle": {"line1": "1 34412U 93036RD  25360.25625198  .00008230  00000+0  18062-2 0  9990", "line2": "2 34412  73.9486 299.1878 0187713  31.1517 330.0606 14.47312096878460"}}, "geometry": {"type": "Point", "coordinates": [-7.016819359608043, 70.63349881908805]}}, {"type": "Feature", "properties": {"norad_id": 34413, "name": "COSMOS 2251 DEB", "group": "cosmos-2251-debris", "lat": 9.663641254934044, "lon": -118.03311989447768, "alt_km": 759.8574512449286, "timestamp": "2025-12-26T21:25:53.403735+00:00", "meta": {"OBJECT_NAME": "COSMOS 2251 DEB", "OBJECT_ID": "1993-036RE", "EPOCH": "2025-12-26T11:33:52.245216", "MEAN_MOTION": 14.29197233, "ECCENTRICITY": 0.00909432, "INCLINATION": 74.0304, "RA_OF_ASC_NODE": 239.9185, "ARG_OF_PERICENTER": 313.8672, "MEAN_ANOMALY": 100.9902, "EPHEMERIS_TYPE": 0, "CLASSIFICATION_TYPE": "U", "NORAD_CAT_ID": 34413, "ELEMENT_SET_NO": 999, "REV_AT_EPOCH": 87327, "BSTAR": 0.0012398824, "MEAN_MOTION_DOT": 3.267e-05, "MEAN_MOTION_DDOT": 0}, "tle": {"line1": "1 34413U 93036RE  25360.48185469  .00003267  00000+0  12399-2 0  9990", "line2": "2 34413  74.0304 239.9185 0090943 313.8672 100.9902 14.29197233873276"}}, "geometry": {"type": "Point", "coordinates": [-118.03311989447768, 9.663641254934044]}}, {"type": "Feature", "properties": {"norad_id": 34420, "name": "COSMOS 2251 DEB", "group": "cosmos-2251-debris", "lat": -58.85653347716902, "lon": 48.30120373430644, "alt_km": 688.9448851508696, "timestamp": "2025-12-26T21:25:53.403745+00:00", "meta": {"OBJECT_NAME": "COSMOS 2251 DEB", "OBJECT_ID": "1993-036RM", "EPOCH": "2025-12-26T15:52:05.994336", "MEAN_MOTION": 14.68337782, "ECCENTRICITY": 0.01059666, "INCLINATION": 74.0332, "RA_OF_ASC_NODE": 77.0311, "ARG_OF_PERICENTER": 194.8501, "MEAN_ANOMALY": 316.3312, "EPHEMERIS_TYPE": 0, "CLASSIFICATION_TYPE": "U", "NORAD_CAT_ID": 34420, "ELEMENT_SET_NO": 999, "REV_AT_EPOCH": 89974, "BSTAR": 0.00022895591, "MEAN_MOTION_DOT": 1.404e-05, "MEAN_MOTION_DDOT": 0}, "tle": {"line1": "1 34420U 93036RM  25360.66118049  .00001404  00000+0  22896-3 0  9993", "line2": "2 34420  74.0332  77.0311 0105966 194.8501 316.3312 14.68337782899743"}}, "geometry": {"type": "Point", "coordinates": [48.30120373430644, -58.85653347716902]}}, {"type": "Feature", "properties": {"norad_id": 34425, "name": "COSMOS 2251 DEB", "group": "cosmos-2251-debris", "lat": 64.54043557571909, "lon": 64.393382153745, "alt_km": 676.3792170946826, "timestamp": "2025-12-26T21:25:53.403756+00:00", "meta": {"OBJECT_NAME": "COSMOS 2251 DEB", "OBJECT_ID": "1993-036RS", "EPOCH": "2025-12-26T11:15:36.344160", "MEAN_MOTION": 14.62199982, "ECCENTRICITY": 0.00240446, "INCLINATION": 74.0192, "RA_OF_ASC_NODE": 28.199, "ARG_OF_PERICENTER": 150.6925, "MEAN_ANOMALY": 209.5597, "EPHEMERIS_TYPE": 0, "CLASSIFICATION_TYPE": "U", "NORAD_CAT_ID": 34425, "ELEMENT_SET_NO": 999, "REV_AT_EPOCH": 88941, "BSTAR": 0.00053247883, "MEAN_MOTION_DOT": 2.663e-05, "MEAN_MOTION_DDOT": 0}, "tle": {"line1": "1 34425U 93036RS  25360.46917065  .00002663  00000+0  53248-3 0  9994", "line2": "2 34425  74.0192  28.1990 0024044 150.6925 209.5597 14.62199982889412"}}, "geometry": {"type": "Point", "coordinates": [64.393382153745, 64.54043557571909]}}, {"type": "Feature", "properties": {"norad_id": 34429, "name": "COSMOS 2251 DEB", "group": "cosmos-2251-debris", "lat": 2.548681024278901, "lon": 137.8231480058654, "alt_km": 415.24302328296835, "timestamp": "2025-12-26T21:25:53.403766+00:00", "meta": {"OBJECT_NAME": "COSMOS 2251 DEB", "OBJECT_ID": "1993-036RW", "EPOCH": "2025-12-26T10:48:12.272256", "MEAN_MOTION": 15.47930745, "ECCENTRICITY": 0.00144689, "INCLINATION": 73.9685, "RA_OF_ASC_NODE": 138.062, "ARG_OF_PERICENTER": 342.8367, "MEAN_ANOMALY": 73.0284, "EPHEMERIS_TYPE": 0, "CLASSIFICATION_TYPE": "U", "NORAD_CAT_ID": 34429, "ELEMENT_SET_NO": 999, "REV_AT_EPOCH": 89660, "BSTAR": 0.0055636119, "MEAN_MOTION_DOT": 0.00302726, "MEAN_MOTION_DDOT": 0}, "tle": {"line1": "1 34429U 93036RW  25360.45014204  .00302726  00000+0  55636-2 0  9995", "line2": "2 34429  73.9685 138.0620 0014468 342.8367  73.0284 15.47930745896606"}}, "geometry": {"type": "Point", "coordinates": [137.8231480058654, 2.548681024278901]}}, {"type": "Feature", "properties": {"norad_id": 34430, "name": "COSMOS 2251 DEB", "group": "cosmos-2251-debris", "lat": 32.53341933957758, "lon": 86.73878065634955, "alt_km": 798.6972580975525, "timestamp": "2025-12-26T21:25:53.403776+00:00", "meta": {"OBJECT_NAME": "COSMOS 2251 DEB", "OBJECT_ID": "1993-036RX", "EPOCH": "2025-12-26T10:44:59.875872", "MEAN_MOTION": 14.39672774, "ECCENTRICITY": 0.00609469, "INCLINATION": 74.0518, "RA_OF_ASC_NODE": 278.0696, "ARG_OF_PERICENTER": 344.5522, "MEAN_ANOMALY": 15.377, "EPHEMERIS_TYPE": 0, "CLASSIFICATION_TYPE": "U", "NORAD_CAT_ID": 34430, "ELEMENT_SET_NO": 999, "REV_AT_EPOCH": 88152, "BSTAR": 0.0004670176, "MEAN_MOTION_DOT": 1.467e-05, "MEAN_MOTION_DDOT": 0}, "tle": {"line1": "1 34430U 93036RX  25360.44791523  .00001467  00000+0  46702-3 0  9995", "line2": "2 34430  74.0518 278.0696 0060946 344.5522  15.3770 14.39672774881526"}}, "geometry": {"type": "Point", "coordinates": [86.73878065634955, 32.53341933957758]}}, {"type": "Feature", "properties": {"norad_id": 34431, "name": "COSMOS 2251 DEB", "group": "cosmos-2251-debris", "lat": -34.14497203132114, "lon": -19.253769425621677, "alt_km": 796.1966496961495, "timestamp": "2025-12-26T21:25:53.403786+00:00", "meta": {"OBJECT_NAME": "COSMOS 2251 DEB", "OBJECT_ID": "1993-036RY", "EPOCH": "2025-12-25T20:54:23.497920", "MEAN_MOTION": 14.2881916, "ECCENTRICITY": 0.0067658, "INCLINATION": 74.0741, "RA_OF_ASC_NODE": 151.4299, "ARG_OF_PERICENTER": 133.6134, "MEAN_ANOMALY": 227.0657, "EPHEMERIS_TYPE": 0, "CLASSIFICATION_TYPE": "U", "NORAD_CAT_ID": 34431, "ELEMENT_SET_NO": 999, "REV_AT_EPOCH": 87330, "BSTAR": 0.00072363, "MEAN_MOTION_DOT": 1.845e-05, "MEAN_MOTION_DDOT": 0}, "tle": {"line1": "1 34431U 93036RY  25359.87110530  .00001845  00000+0  72363-3 0  9996", "line2": "2 34431  74.0741 151.4299 0067658 133.6134 227.0657 14.28819160873304"}}, "geometry": {"type": "Point", "coordinates": [-19.253769425621677, -34.14497203132114]}}, {"type": "Feature", "properties": {"norad_id": 34432, "name": "COSMOS 2251 DEB", "group": "cosmos-2251-debris", "lat": -14.894937550163073, "lon": 72.96214741800557, "alt_km": 1018.4637537968592, "timestamp": "2025-12-26T21:25:53.403797+00:00", "meta": {"OBJECT_NAME": "COSMOS 2251 DEB", "OBJECT_ID": "1993-036RZ", "EPOCH": "2025-12-26T15:14:50.829792", "MEAN_MOTION": 14.02963413, "ECCENTRICITY": 0.01811712, "INCLINATION": 73.8285, "RA_OF_ASC_NODE": 77.8425, "ARG_OF_PERICENTER": 158.3242, "MEAN_ANOMALY": 325.6108, "EPHEMERIS_TYPE": 0, "CLASSIFICATION_TYPE": "U", "NORAD_CAT_ID": 34432, "ELEMENT_SET_NO": 999, "REV_AT_EPOCH": 85879, "BSTAR": 0.001158423, "MEAN_MOTION_DOT": 2.053e-05, "MEAN_MOTION_DDOT": 0}, "tle": {"line1": "1 34432U 93036RZ  25360.63531053  .00002053  00000+0  11584-2 0  9999", "line2": "2 34432  73.8285  77.8425 0181171 158.3242 325.6108 14.02963413858793"}}, "geometry": {"type": "Point", "coordinates": [72.96214741800557, -14.894937550163073]}}]}